XRISM                   
1 57800U 23137A   24058.53230888  .00005450  00000+0  42401-3 0  9999
2 57800  31.0048 356.1771 0010086 195.1005 164.9330 14.99749016 25973
